[{"OBJECT_NAME":"STARLINK-1821","OBJECT_ID":"2020-073BA","EPOCH":"2026-03-09T17:31:05.033568","MEAN_MOTION":15.37970474,"ECCENTRICITY":0.00041483,"INCLINATION":53.0488,"RA_OF_ASC_NODE":226.3874,"ARG_OF_PERICENTER":156.9798,"MEAN_ANOMALY":203.1391,"EPHEMERIS_TYPE":0,"CLASSIFICATION_TYPE":"U","NORAD_CAT_ID":46718,"ELEMENT_SET_NO":999,"REV_AT_EPOCH":29735,"BSTAR":0.0021811338,"MEAN_MOTION_DOT":0.00083201,"MEAN_MOTION_DDOT":0},{"OBJECT_NAME":"KUIPER-00270","OBJECT_ID":"2026-030AD","EPOCH":"2026-03-09T18:42:34.651008","MEAN_MOTION":15.3468042,"ECCENTRICITY":0.00106803,"INCLINATION":51.8805,"RA_OF_ASC_NODE":218.9166,"ARG_OF_PERICENTER":56.4163,"MEAN_ANOMALY":303.7841,"EPHEMERIS_TYPE":0,"CLASSIFICATION_TYPE":"U","NORAD_CAT_ID":67791,"ELEMENT_SET_NO":999,"REV_AT_EPOCH":510,"BSTAR":0.00093017146,"MEAN_MOTION_DOT":0.00031543,"MEAN_MOTION_DDOT":0}]
