STARLINK-1821           
1 46718U 20073BA  26068.72991936  .00083201  00000+0  21811-2 0  9994
2 46718  53.0488 226.3874 0004148 156.9798 203.1391 15.37970474297352
KUIPER-00270            
1 67791U 26030AD  26068.77956772  .00031543  00000+0  93017-3 0  9991
2 67791  51.8805 218.9166 0010680  56.4163 303.7841 15.34680420  5107
